2022-169A               
1 54699U 22169A   23002.24572613  .00000460  00000+0  23637-3 0  9993
2 54699  59.9963  88.1057 0004426 269.2253  90.8289 14.28666488  2988
2022-169B               
1 54700U 22169B   23002.25158225  .00000012  00000+0  58708-4 0  9997
2 54700  59.9962  88.1330 0006575 259.8574 100.1757 14.28670585  2980
2022-169C               
1 54701U 22169C   23002.22797977  .00000226  00000+0  94878-4 0  9993
2 54701  59.9576  85.7488 0095398  57.3138 303.7084 14.49503921  3029
2022-169D               
1 54702U 22169D   23001.82542496  .00000531  00000+0  26220-3 0  9997
2 54702  59.9984  89.4962 0006017 272.4130  87.6229 14.29152835  2933
SZ-14 MODULE            
1 54704U 22060G   23001.98849579  .00027747  00000+0  31923-3 0  9992
2 54704  41.4881  88.5653 0009131 267.7147 264.9033 15.61326164  4209
GALAXY 35 (G-35)        
1 54741U 22170A   23001.98509156  .00000143  00000+0  00000+0 0  9998
2 54741   0.0397 198.1662 0002108 169.2515 298.5026  1.00271390   246
GALAXY 36 (G-36)        
1 54742U 22170B   23002.27204922  .00000143  00000+0  00000+0 0  9995
2 54742   0.0127  72.4995 0002031 198.2236 138.9098  1.00274904   260
METEOSAT-12 (MTG-1)     
1 54743U 22170C   22353.31524981 -.00000002  00000+0  00000+0 0  9994
2 54743   5.5504 217.8990 7131836 181.4542 110.3708  2.25104636   115
ARIANE 5 DEB [SYLDA]    
1 54744U 22170D   22362.47558301  .00019359  00000+0  48906-2 0  9999
2 54744   5.9816 212.9323 7277424 190.0227 137.2739  2.28861921   327
ARIANE 5 R/B            
1 54745U 22170E   22361.54777604  .00004540  00000+0  84527-3 0  9992
2 54745   5.7426 215.2605 7276934 187.1761 149.0086  2.29704568   316
2022-171A               
1 54746U 22171A   23002.29883102 -.00000037  00000+0  00000+0 0  9998
2 54746  34.9942 218.7421 0006617  62.8588 271.0319 15.22436296  2826
2022-171B               
1 54747U 22171B   23002.05323368  .00023751  00000+0  95293-3 0  9995
2 54747  34.9951 220.1161 0006289  61.4359  67.5486 15.24070382  2769
2022-171C               
1 54748U 22171C   23001.65674397 -.00000037  00000+0  00000+0 0  9993
2 54748  34.9940 222.7552 0006114 117.9997 299.3520 15.22281797  2702
2022-171D               
1 54749U 22171D   23002.04865685  .00026189  00000+0  10372-2 0  9991
2 54749  34.9961 220.0833 0006716  72.1606  55.6811 15.24485537  2768
2022-171E               
1 54750U 22171E   23001.92892965 -.00000038  00000+0  00000+0 0  9990
2 54750  34.9945 221.0058 0011970  62.1557  62.8467 15.22329828  2736
2022-167Q               
1 54751U 22167Q   23001.94200789  .00008184  00000+0  50855-3 0  9991
2 54751  97.5370 141.5485 0014161 197.2057 316.2058 15.09833009  3227
SHIYAN 21               
1 54752U 22172A   23001.90530093  .00009256  00000+0  33380-3 0  9993
2 54752  36.0020  50.7484 0012500  88.8543 261.9583 15.27837074  2547
SWOT                    
1 54754U 22173A   23002.06494290  .00137736  00000+0  76186-1 0  9996
2 54754  77.5910 303.3064 0005242 331.7453  28.3310 14.10338226  2339
O3B MPOWER-A F1         
1 54755U 22174A   22356.18260191  .00000047  00000+0  00000+0 0  9997
2 54755   9.6319 253.0871 1859317 195.2651 337.7567  7.25479946   387
O3B MPOWER-A F2         
1 54756U 22174B   23001.28664324  .00000048  00000+0  00000+0 0  9994
2 54756   9.6150 238.5471 1870572 224.0437 119.4660  7.26306270  1115
FALCON 9 R/B            
1 54757U 22174C   22363.39930934  .00000051  00000+0  19909-2 0  9995
2 54757   9.6155 242.6686 1870445 215.9316 129.9431  7.26306030   888
STARLINK-5464           
1 54758U 22175A   23002.09896713  .00032369  00000+0  23472-3 0  9999
2 54758  53.2151 230.5152 0001650  35.1555 324.9573 15.73143704   864
STARLINK-5215           
1 54759U 22175B   23002.00001157 -.00006835  00000+0 -44310-4 0  9997
2 54759  53.2145 231.0008 0001657  42.4079 118.6891 15.73203087  1305
STARLINK-5220           
1 54760U 22175C   23002.03524467  .00064452  00000+0  46135-3 0  9999
2 54760  53.2149 230.8282 0001253  98.6676 261.4486 15.73137583  2136
STARLINK-5202           
1 54761U 22175D   23002.09887767  .00069669  00000+0  49760-3 0  9993
2 54761  53.2148 230.5134 0001082  83.2001 276.9143 15.73157909  2147
STARLINK-5214           
1 54762U 22175E   23002.09844687  .00056409  00000+0  40370-3 0  9994
2 54762  53.2146 230.5102 0000881 125.5460 234.5643 15.73196464  2140
STARLINK-5191           
1 54763U 22175F   23002.09856036  .00067077  00000+0  47884-3 0  9996
2 54763  53.2148 230.5120 0001021 104.8732 255.2402 15.73185229  2142
STARLINK-5458           
1 54764U 22175G   23002.00001157 -.00526965  00000+0 -39662-2 0  9996
2 54764  53.2163 230.9949 0001155 103.2508  60.2641 15.73343617  1308
STARLINK-5466           
1 54765U 22175H   23002.09832917  .00044236  00000+0  31851-3 0  9999
2 54765  53.2146 230.5101 0001930  65.7928 294.3293 15.73157447  2156
STARLINK-5471           
1 54766U 22175J   23002.03450405  .00070867  00000+0  50519-3 0  9993
2 54766  53.2147 230.8221 0001021  92.5145 267.5992 15.73195759  2138
STARLINK-5472           
1 54767U 22175K   23002.03439918  .00070136  00000+0  49985-3 0  9994
2 54767  53.2150 230.8225 0000769  88.9876 271.1233 15.73206101  2138
STARLINK-5444           
1 54768U 22175L   23002.00001157  .00038695  00000+0  27909-3 0  9998
2 54768  53.2152 230.9930 0001279  58.4448 108.0550 15.73180017  1304
STARLINK-5404           
1 54769U 22175M   23002.00001157 -.00449426  00000+0 -33526-2 0  9990
2 54769  53.2164 230.9943 0001168  94.8897  69.1945 15.73334372  1301
STARLINK-5448           
1 54770U 22175N   23002.03397359  .00063834  00000+0  45622-3 0  9991
2 54770  53.2151 230.8209 0001043  84.7640 275.3499 15.73177915  2134
STARLINK-5451           
1 54771U 22175P   23002.03428066  .00052482  00000+0  37637-3 0  9996
2 54771  53.2151 230.8225 0001235  51.1126 309.0004 15.73178248  2130
STARLINK-5452           
1 54772U 22175Q   23002.09741023  .00052886  00000+0  37935-3 0  9993
2 54772  53.2145 230.5045 0002496  65.5793 294.5487 15.73167871  2144
STARLINK-5453           
1 54773U 22175R   23002.09759417  .00064316  00000+0  45897-3 0  9997
2 54773  53.2150 230.5055 0001285  32.2005 327.9093 15.73210180  2140
STARLINK-5454           
1 54774U 22175S   23002.03355158  .00077166  00000+0  54906-3 0  9994
2 54774  53.2148 230.8170 0001383  30.1262 329.9838 15.73205512  2131
STARLINK-5465           
1 54775U 22175T   23002.09729895  .00058701  00000+0  42021-3 0  9993
2 54775  53.2150 230.5043 0001094  81.1104 279.0039 15.73174310  2141
STARLINK-5470           
1 54776U 22175U   23002.03343289  .00053956  00000+0  38703-3 0  9996
2 54776  53.2152 230.8173 0001544  59.3547 300.7625 15.73160765  2130
STARLINK-5468           
1 54777U 22175V   23002.00001157 -.00062895  00000+0 -44683-3 0  9997
2 54777  53.2163 230.9837 0001016  68.4538 100.9705 15.73212938  1303
STARLINK-5450           
1 54778U 22175W   23002.03323936  .00069049  00000+0  49196-3 0  9993
2 54778  53.2152 230.8160 0001196  50.4051 309.7075 15.73219180  2137
STARLINK-5447           
1 54779U 22175X   23002.03335731  .00066885  00000+0  47767-3 0  9997
2 54779  53.2147 230.8145 0001478  45.7430 314.3711 15.73176297  2136
STARLINK-5449           
1 54780U 22175Y   23002.09527654  .00024041  00000+0  17542-3 0  9998
2 54780  53.2154 230.4910 0001828  74.8276 285.2946 15.73173097  2144
STARLINK-5443           
1 54781U 22175Z   23002.00001157  .00097786  00000+0  69433-3 0  9997
2 54781  53.2156 230.9817 0001750  36.0317 136.4007 15.73156878  1308
STARLINK-5437           
1 54782U 22175AA  23002.16667824  .00135672  00000+0  95937-3 0  9999
2 54782  53.2163 229.8131 0001852  37.1011 169.1796 15.73106183  2155
STARLINK-5439           
1 54783U 22175AB  23002.03303557  .00075787  00000+0  53985-3 0  9993
2 54783  53.2150 230.8137 0002793  59.5105 300.6191 15.73184033  2136
STARLINK-5442           
1 54784U 22175AC  23002.09635286  .00069662  00000+0  49737-3 0  9992
2 54784  53.2156 230.5002 0001008  87.6929 272.4206 15.73166531  2142
STARLINK-5440           
1 54785U 22175AD  23002.25001157 -.00583283  00000+0 -43287-2 0  9990
2 54785  53.2167 229.3867 0000997  81.0647 242.5541 15.73826074  2168
STARLINK-5438           
1 54786U 22175AE  23002.09581018  .00057215  00000+0  40996-3 0  9996
2 54786  53.2154 230.4955 0001624  56.2722 303.8453 15.73162219  2147
STARLINK-5441           
1 54787U 22175AF  23002.00001157 -.00251847  00000+0 -18365-2 0  9992
2 54787  53.2164 230.9737 0001354  85.9670  88.8725 15.73297336  1301
STARLINK-5399           
1 54788U 22175AG  23002.09558768  .00058645  00000+0  41933-3 0  9994
2 54788  53.2154 230.4947 0000900  84.2587 275.8536 15.73201303  2144
STARLINK-5446           
1 54789U 22175AH  23002.25001157  .00306531  48910-4  65390-3 0  9998
2 54789  53.2123 228.5026 0037351 107.4568 281.6749 15.96812569  2175
STARLINK-5445           
1 54790U 22175AJ  23002.09539700  .00073976  00000+0  52621-3 0  9992
2 54790  53.2155 230.4924 0001601  37.5664 322.5468 15.73229095  2141
STARLINK-5425           
1 54791U 22175AK  23002.00001157  .00084905  00000+0  60372-3 0  9990
2 54791  53.2153 230.9719 0001487  55.3711 121.2028 15.73182449  1304
STARLINK-5431           
1 54792U 22175AL  23002.09507851 -.00039487  00000+0 -27942-3 0  9995
2 54792  53.2160 230.4933 0003069  35.0388 325.0833 15.73094406  2145
STARLINK-5433           
1 54793U 22175AM  23001.91667824  .00043791  00000+0  31522-3 0  9993
2 54793  53.2152 231.3503 0001662  39.4261  40.9873 15.73168825  1306
STARLINK-5392           
1 54794U 22175AN  23002.09498122  .00084138  00000+0  59774-3 0  9996
2 54794  53.2155 230.4907 0002879  64.4590 295.6727 15.73203809  2144
STARLINK-5436           
1 54795U 22175AP  23001.91667824  .00047133  00000+0  33916-3 0  9998
2 54795  53.2155 231.3808 0001271  51.3854  15.3828 15.73144365  1305
